IRIDIUM 119             
1 42959U 17061E   24260.60521475  .00000073  00000+0  18860-4 0  9994
2 42959  86.3928 292.1039 0001918  92.3334 267.8081 14.34213410363283
IRIDIUM 107             
1 42960U 17061F   24260.62424507  .00000364  00000+0  12300-3 0  9991
2 42960  86.3926 292.1130 0001983  97.3109 262.8312 14.34215233363302
IRIDIUM 132             
1 42961U 17061G   24260.63058327  .00000287  00000+0  95463-4 0  9992
2 42961  86.3929 292.0946 0002008 100.7917 259.3505 14.34214234363298
IRIDIUM 136             
1 42962U 17061H   24260.94136477  .00001023  00000+0  35832-3 0  9992
2 42962  86.3926 291.9681 0002091  89.2756 270.8679 14.34223619363358
IRIDIUM 139             
1 42963U 17061J   24260.59887281  .00000849  00000+0  29603-3 0  9994
2 42963  86.3928 292.1631 0001941  99.3362 260.8053 14.34214157363315
IRIDIUM 125             
1 42964U 17061K   24260.65595714  .00000632  00000+0  21868-3 0  9994
2 42964  86.3931 292.1886 0001645  87.1896 272.9488 14.34216212363332
IRIDIUM 135             
1 43070U 17083A   24260.97891958  .00000522  00000+0  17938-3 0  9992
2 43070  86.3967 228.6863 0002674  89.5026 270.6476 14.34213107352670
IRIDIUM 138             
1 43071U 17083B   24260.93452475  .00000642  00000+0  22233-3 0  9993
2 43071  86.3954 228.4107 0002191  75.6617 284.4822 14.34213414352659
